KUIPER-00016            
1 63732U 25088J   25333.83339365 -.00001824  00000+0 -20953-3 0  9998
2 63732  51.8985 193.1582 0013582  94.7498 265.5015 14.79931609 32545
KUIPER-00018            
1 63733U 25088K   25333.84595880  .00007636  00000+0  10288-2 0  9990
2 63733  51.9020 182.0558 0013995 117.0159 243.2233 14.79910587 32703
KUIPER-00019            
1 63734U 25088L   25333.84698983  .00008916  00000+0  11968-2 0  9997
2 63734  51.8986 180.6024 0010447 126.8167 233.3755 14.79914672 32722
KUIPER-00020            
1 63735U 25088M   25333.84314116  .00000385  00000+0  79816-4 0  9991
2 63735  51.9000 184.5988 0009488 106.4436 253.7570 14.79917986 32877
KUIPER-00021            
1 63736U 25088N   25333.63891120 -.00001680  00000+0 -19101-3 0  9995
2 63736  51.9005 186.5025 0007979 104.7354 255.4493 14.79923577 32663
KUIPER-00023            
1 63737U 25088P   25333.63785865 -.00000602  00000+0 -49374-4 0  9993
2 63737  51.8985 187.9700 0012477 125.1329 235.0804 14.79948055 32942
KUIPER-00024            
1 63738U 25088Q   25333.84705424  .00001613  00000+0  24216-3 0  9998
2 63738  51.9011 174.5194 0005267 119.6402 240.5085 14.79664363 33278
KUIPER-00025            
1 63739U 25088R   25333.83327918 -.00005170  00000+0 -63994-3 0  9996
2 63739  51.9022 183.0554 0010397 102.8261 257.3863 14.80495719 33014
